[{"OBJECT_NAME":"TIANMU-1 20","OBJECT_ID":"2023-208B","EPOCH":"2026-03-09T21:50:45.859200","MEAN_MOTION":15.31029249,"ECCENTRICITY":0.00061925,"INCLINATION":97.4323,"RA_OF_ASC_NODE":185.4313,"ARG_OF_PERICENTER":324.1763,"MEAN_ANOMALY":35.9062,"EPHEMERIS_TYPE":0,"CLASSIFICATION_TYPE":"U","NORAD_CAT_ID":58661,"ELEMENT_SET_NO":999,"REV_AT_EPOCH":12222,"BSTAR":0.0003681641,"MEAN_MOTION_DOT":0.00010969,"MEAN_MOTION_DDOT":0},{"OBJECT_NAME":"STARLINK-32424","OBJECT_ID":"2024-184S","EPOCH":"2026-03-09T03:54:30.515616","MEAN_MOTION":15.30191613,"ECCENTRICITY":0.00010111,"INCLINATION":53.161,"RA_OF_ASC_NODE":16.5816,"ARG_OF_PERICENTER":93.8363,"MEAN_ANOMALY":266.2753,"EPHEMERIS_TYPE":0,"CLASSIFICATION_TYPE":"U","NORAD_CAT_ID":61548,"ELEMENT_SET_NO":999,"REV_AT_EPOCH":7842,"BSTAR":-9.494418e-6,"MEAN_MOTION_DOT":-6.4e-6,"MEAN_MOTION_DDOT":0}]
